NUSAT-1 (FRESCO)        
1 41557U 16033B   22144.50678301  .00021235  00000+0  64170-3 0  9991
2 41557  97.3866 242.1742 0012759 105.1709 310.5051 15.34175897333714
BEESAT-4                
1 41619U 16040W   22144.12571760  .00017344  00000+0  58922-3 0  9991
2 41619  97.2186 195.4131 0009634 192.4973 167.6031 15.30495585317007
CAS-2T & KS-1Q          
1 41847U 16066G   22144.20724865  .00000673  00000+0  11234-3 0  9999
2 41847  98.5518 208.8997 0362749 282.4529  73.6301 14.38554036290862
NAYIF-1 (EO-88)         
1 42017U 17008BX  22144.17256633  .00020293  00000+0  61963-3 0  9999
2 42017  97.2702 210.6491 0003965 347.5431  12.5714 15.33927019293358
ZHUHAI-1 02 (CAS-4B)    
1 42759U 17034B   22144.33631098  .00005504  00000+0  32986-3 0  9992
2 42759  43.0169 105.6197 0007712 145.0140 339.5324 15.11734207272701
ZHUHAI-1 01 (CAS-4A)    
1 42761U 17034D   22144.37569355  .00005442  00000+0  32545-3 0  9997
2 42761  43.0167 104.2037 0007959 146.2377 350.0187 15.11827239272712
MAX VALIER SAT          
1 42778U 17036P   22143.68118187  .00015066  00000+0  57609-3 0  9994
2 42778  97.2076 185.6370 0012408  61.4636 298.7851 15.26612133273127
RADFXSAT (FOX-1B)       
1 43017U 17073E   22144.18909971  .00004310  00000+0  32955-3 0  9994
2 43017  97.6774  39.3709 0247505 267.3055  89.9808 14.81278796243520
FOX-1D (AO-92)          
1 43137U 18004AC  22144.14576373  .00013848  00000+0  49391-3 0  9992
2 43137  97.3686 219.5279 0009306  91.7397 268.4909 15.28963995242629
DIWATA-2B               
1 43678U 18084H   22144.44259115  .00001231  00000+0  12673-3 0  9991
2 43678  97.9666 277.4324 0010205  12.4651 347.6827 14.92131141194276
ES'HAIL 2               
1 43700U 18090A   22143.82703311  .00000135  00000+0  00000+0 0  9996
2 43700   0.0109 322.8825 0001149 104.0225 138.0033  1.00271624 12784
FOX-1CLIFF (AO-95)      
1 43770U 18099N   22143.71493048  .00004422  00000+0  39528-3 0  9997
2 43770  97.6204 210.7075 0013930   4.3567 355.7774 14.96322971189318
ITASAT 1                
1 43786U 18099AE  22142.17284358  .00003835  00000+0  34214-3 0  9999
2 43786  97.6233 210.1094 0014690   1.5593 358.5672 14.96473746189128
JY1SAT (JO-97)          
1 43803U 18099AX  22143.73649793  .00005555  00000+0  48718-3 0  9995
2 43803  97.6201 211.3822 0014184 358.0408   2.0756 14.96957622189379
UWE-4                   
1 43880U 18111E   22143.68725859  .00006183  00000+0  52713-3 0  9995
2 43880  97.6694  50.4291 0013422  51.4353 308.8070 14.98025625185990
NEXUS (FO-99)           
1 43937U 19003F   22143.84626825  .00016392  00000+0  56082-3 0  9996
2 43937  97.1325 178.1621 0019364 237.8035 122.1329 15.30138790186217
PSAT2 (NO-104)          
1 44354U 19036R   22144.26669891  .00082901 -43921-5  78534-3 0  9994
2 44354  28.5252 345.6624 0242087  58.4864 303.9147 15.36475392160946
JAISAT-1                
1 44419U 19038F   22144.16554225  .00009281  00000+0  47122-3 0  9994
2 44419  97.6341 114.1026 0018361 210.2298 149.7877 15.16984701159372
DUCHIFAT-3              
1 44854U 19089C   22144.56205809  .00006708  00000+0  52165-3 0  9992
2 44854  36.9663 241.9670 0008594  20.2602 357.7919 15.00944543134348
CAS-6 (TO-108)          
1 44881U 19093C   22144.47013924  .00001048  00000+0  13959-3 0  9992
2 44881  97.8919 224.0226 0013642 264.0148  95.9521 14.81702253131222
RS-44 & BREEZE-KM R/B   
1 44909U 19096E   22143.79843321  .00000008  00000+0 -11709-4 0  9990
2 44909  82.5224 246.6513 0217544  17.6831 343.1691 12.79713179112353
ORBITAL FACTORY 2 (OF-2)
1 45113U 19071C   22144.11030051  .00030072  00000+0  64690-3 0  9995
2 45113  51.6375 179.0440 0010544  74.0167 286.1981 15.44329948129610
HUSKYSAT-1 (HO-107)     
1 45119U 19071J   22143.39042936  .00029574  00000+0  65440-3 0  9994
2 45119  51.6379 182.4644 0010385  68.9624 291.2472 15.43504208129498
BY70-2                  
1 45857U 20042B   22144.41977366  .00012101  00000+0  16213-2 0  9992
2 45857  97.9547 221.4956 0011270 185.7447 174.3636 14.79513485101906
SALSAT                  
1 46495U 20068K   22143.82036965  .00003683  00000+0  26737-3 0  9992
2 46495  97.7282  85.1170 0016753   8.6827 351.4685 15.04413362 90482
BY70-3                  
1 46839U 20079N   22144.48953558  .00033539  00000+0  81070-3 0  9999
2 46839  97.1985 216.9123 0006693  71.3216  26.0949 15.41060539 86557
RADFXSAT-2 (AO-109)     
1 47311U 21002C   22144.08040431  .00012805  00000+0  51937-3 0  9997
2 47311  60.6852  93.9720 0012405 306.1041  53.8898 15.24927783 74754
UVSQ-SAT                
1 47438U 21006AB  22144.11538978  .00009055  00000+0  48151-3 0  9990
2 47438  97.4384 203.6278 0011705   7.7979 352.3434 15.15434778 73597
DIY-1 (ARDUIQUBE)       
1 47963U 21022AH  22144.27523473  .00019399  00000+0  11027-2 0  9995
2 47963  97.5346  45.9239 0016064 209.0989 150.9349 15.12819763 63295
XW-3 (CAS-9)            
1 50466U 21131B   22144.38359516  .00000387  00000+0  14120-3 0  9990
2 50466  98.5806 221.6483 0004113 204.3630 155.7363 14.38491533 21455
